ONEWEB-0275             
1 48993U 21060AC  26160.47774343  .00000096  00000+0  21758-3 0  9996
2 48993  87.9102 230.3062 0001977  96.4781 263.6575 13.16593723238543
ONEWEB-0276             
1 48994U 21060AD  26160.43498851  .00000041  00000+0  72537-4 0  9992
2 48994  87.9101 230.3141 0002022  93.9676 266.1686 13.16594769238551
ONEWEB-0277             
1 48995U 21060AE  26160.21966975 -.00000040  00000+0 -13705-3 0  9998
2 48995  87.9094 230.3665 0001896 100.4132 259.7213 13.16593467238517
ONEWEB-0278             
1 48996U 21060AF  26160.21015101 -.00000064  00000+0 -20009-3 0  9996
2 48996  87.9104 230.3577 0002265 102.0572 258.0813 13.16596960238642
ONEWEB-0279             
1 48997U 21060AG  26160.44607576 -.00000027  00000+0 -10423-3 0  9993
2 48997  87.9101 230.3092 0001836  95.8035 264.3305 13.16594172238603
ONEWEB-0280             
1 48998U 21060AH  26160.46110499 -.00000051  00000+0 -16661-3 0  9996
2 48998  87.9098 230.3106 0002021 108.6805 251.4546 13.16592940238548
ONEWEB-0281             
1 48999U 21060AJ  26160.46665981  .00000023  00000+0  26992-4 0  9994
2 48999  87.9099 230.3046 0002108  99.6990 260.4379 13.16594523238614
ONEWEB-0282             
1 49000U 21060AK  26160.42072455  .00000016  00000+0  78445-5 0  9995
2 49000  87.9099 230.3221 0001900 101.7418 258.3926 13.16596838238583
ONEWEB-0283             
1 49001U 21060AL  26160.18166409  .00000181  00000+0  44060-3 0  9999
2 49001  87.9099 230.3691 0001886  97.3485 262.7861 13.16594188238563
ONEWEB-0284             
1 49002U 21060AM  26160.47932531  .00000106  00000+0  24314-3 0  9996
2 49002  87.9099 230.3032 0002155 108.0785 252.0580 13.16594310238585
ONEWEB-0285             
1 49075U 21075A   26160.51279202  .00000367  00000+0  98601-3 0  9995
2 49075  87.8948 352.1885 0001748  90.1915 269.9414 13.12443852234207
ONEWEB-0286             
1 49076U 21075B   26160.49485775 -.00000225  00000+0 -65994-3 0  9991
2 49076  87.8937 352.2096 0002020  86.8725 273.2634 13.12443645233555
ONEWEB-0287             
1 49077U 21075C   26160.49709813  .00000034  00000+0  54739-4 0  9996
2 49077  87.9138   7.3958 0002271  88.0516 272.0875 13.17649041232618
ONEWEB-0288             
1 49078U 21075D   26160.54751441 -.00000189  00000+0 -56024-3 0  9998
2 49078  87.8948 352.1748 0001991  92.7114 267.4243 13.12442454234184
ONEWEB-0289             
1 49079U 21075E   26160.53577467  .00000010  00000+0 -66996-5 0  9995
2 49079  87.9142   7.4049 0001718  99.4122 260.7204 13.17648829233198
ONEWEB-0290             
1 49080U 21075F   26160.50891473  .00000059  00000+0  11871-3 0  9992
2 49080  87.9150   7.3814 0001595 101.9258 258.2052 13.17648045232608
ONEWEB-0291             
1 49081U 21075G   26160.49372696  .00000024  00000+0  28644-4 0  9991
2 49081  87.9141   7.3927 0002113  95.2006 264.9367 13.17648143232597
ONEWEB-0293             
1 49082U 21075H   26160.51902803  .00000035  00000+0  56219-4 0  9995
2 49082  87.9138   7.3908 0001828  91.8488 268.2853 13.17648065232625
ONEWEB-0294             
1 49083U 21075J   26160.55429223 -.00000345  00000+0 -99543-3 0  9992
2 49083  87.8948 352.1769 0001692  99.6208 260.5112 13.12443016233577
ONEWEB-0295             
1 49084U 21075K   26160.51818838  .00000078  00000+0  16736-3 0  9997
2 49084  87.9136   7.3955 0002129  91.0659 269.0717 13.17647740232586
ONEWEB-0296             
1 49085U 21075L   26160.53396565  .00000216  00000+0  56392-3 0  9994
2 49085  87.8952 352.1883 0002079  95.4036 264.7330 13.12441848233573
ONEWEB-0297             
1 49086U 21075M   26160.48821677 -.00000342  00000+0 -98494-3 0  9997
2 49086  87.8937 352.2093 0001929  89.7397 270.3952 13.12444367234179
ONEWEB-0298             
1 49087U 21075N   26160.52254596 -.00001116  00000+0 -29074-2 0  9990
2 49087  87.9135   7.3927 0001999  83.9015 276.2345 13.17655380232617
ONEWEB-0299             
1 49088U 21075P   26160.52410419  .00000045  00000+0  83934-4 0  9994
2 49088  87.9147   7.3718 0002042  86.9233 273.2132 13.17649318232596
ONEWEB-0300             
1 49089U 21075Q   26160.48059058 -.00000444  00000+0 -12701-2 0  9995
2 49089  87.8951 352.1896 0001954  78.3154 281.8193 13.12444512234199
ONEWEB-0301             
1 49090U 21075R   26160.54073801  .00000025  00000+0  33165-4 0  9998
2 49090  87.8947 352.1756 0001788  77.8178 282.3150 13.12443303233562
ONEWEB-0302             
1 49091U 21075S   26160.52719360  .00000424  00000+0  11442-2 0  9999
2 49091  87.8951 352.1901 0001820  99.4447 260.6888 13.12442683233541
ONEWEB-0304             
1 49092U 21075T   26160.49878617 -.00000028  00000+0 -10611-3 0  9997
2 49092  87.9139   7.3998 0002004  88.4886 271.6475 13.17649080232566
ONEWEB-0305             
1 49093U 21075U   26160.49203795  .00000038  00000+0  64911-4 0  9999
2 49093  87.9147   7.3851 0002241  88.7137 271.4252 13.17648774232592
ONEWEB-0308             
1 49094U 21075V   26160.52041614  .00000501  00000+0  13568-2 0  9999
2 49094  87.8949 352.1837 0001783  88.6330 271.5003 13.12442947233552
