OBJECT_NAME,OBJECT_ID,EPOCH,MEAN_MOTION,ECCENTRICITY,INCLINATION,RA_OF_ASC_NODE,ARG_OF_PERICENTER,MEAN_ANOMALY,EPHEMERIS_TYPE,CLASSIFICATION_TYPE,NORAD_CAT_ID,ELEMENT_SET_NO,REV_AT_EPOCH,BSTAR,MEAN_MOTION_DOT,MEAN_MOTION_DDOT
ONEWEB-0275,2021-060AC,2026-06-09T11:27:57.032352,13.16593723,.00019773,87.9102,230.3062,96.4781,263.6575,0,U,48993,999,23854,.21757764E-3,.96E-6,0
ONEWEB-0276,2021-060AD,2026-06-09T10:26:23.007264,13.16594769,.00020229,87.9101,230.3141,93.9676,266.1686,0,U,48994,999,23855,.72537336E-4,.41E-6,0
ONEWEB-0277,2021-060AE,2026-06-09T05:16:19.466400,13.16593467,.0001896,87.9094,230.3665,100.4132,259.7213,0,U,48995,999,23851,-.13705E-3,-.4E-6,0
ONEWEB-0278,2021-060AF,2026-06-09T05:02:37.047264,13.16596960,.0002265,87.9104,230.3577,102.0572,258.0813,0,U,48996,999,23864,-.20009E-3,-.64E-6,0
ONEWEB-0279,2021-060AG,2026-06-09T10:42:20.945664,13.16594172,.00018367,87.9101,230.3092,95.8035,264.3305,0,U,48997,999,23860,-.10422863E-3,-.27E-6,0
ONEWEB-0280,2021-060AH,2026-06-09T11:03:59.471136,13.16592940,.00020219,87.9098,230.3106,108.6805,251.4546,0,U,48998,999,23854,-.16661151E-3,-.51E-6,0
ONEWEB-0281,2021-060AJ,2026-06-09T11:11:59.407584,13.16594523,.00021081,87.9099,230.3046,99.6990,260.4379,0,U,48999,999,23861,.26991822E-4,.23E-6,0
ONEWEB-0282,2021-060AK,2026-06-09T10:05:50.601120,13.16596838,.00019003,87.9099,230.3221,101.7418,258.3926,0,U,49000,999,23858,.7844507E-5,.16E-6,0
ONEWEB-0283,2021-060AL,2026-06-09T04:21:35.777376,13.16594188,.0001886,87.9099,230.3691,97.3485,262.7861,0,U,49001,999,23856,.44059806E-3,.181E-5,0
ONEWEB-0284,2021-060AM,2026-06-09T11:30:13.706784,13.16594310,.00021552,87.9099,230.3032,108.0785,252.0580,0,U,49002,999,23858,.2431426E-3,.106E-5,0
ONEWEB-0285,2021-075A,2026-06-09T12:18:25.230528,13.12443852,.00017487,87.8948,352.1885,90.1915,269.9414,0,U,49075,999,23420,.9860118E-3,.367E-5,0
ONEWEB-0286,2021-075B,2026-06-09T11:52:35.709600,13.12443645,.00020205,87.8937,352.2096,86.8725,273.2634,0,U,49076,999,23355,-.65993939E-3,-.225E-5,0
ONEWEB-0287,2021-075C,2026-06-09T11:55:49.278432,13.17649041,.00022711,87.9138,7.3958,88.0516,272.0875,0,U,49077,999,23261,.54738966E-4,.34E-6,0
ONEWEB-0288,2021-075D,2026-06-09T13:08:25.245024,13.12442454,.00019913,87.8948,352.1748,92.7114,267.4243,0,U,49078,999,23418,-.56024062E-3,-.189E-5,0
ONEWEB-0289,2021-075E,2026-06-09T12:51:30.931488,13.17648829,.00017186,87.9142,7.4049,99.4122,260.7204,0,U,49079,999,23319,-.6699588E-5,.1E-6,0
ONEWEB-0290,2021-075F,2026-06-09T12:12:50.232672,13.17648045,.00015953,87.9150,7.3814,101.9258,258.2052,0,U,49080,999,23260,.1187084E-3,.59E-6,0
ONEWEB-0291,2021-075G,2026-06-09T11:50:58.009344,13.17648143,.00021133,87.9141,7.3927,95.2006,264.9367,0,U,49081,999,23259,.28643815E-4,.24E-6,0
ONEWEB-0293,2021-075H,2026-06-09T12:27:24.021792,13.17648065,.00018281,87.9138,7.3908,91.8488,268.2853,0,U,49082,999,23262,.56219444E-4,.35E-6,0
ONEWEB-0294,2021-075J,2026-06-09T13:18:10.848672,13.12443016,.00016923,87.8948,352.1769,99.6208,260.5112,0,U,49083,999,23357,-.99542647E-3,-.345E-5,0
ONEWEB-0295,2021-075K,2026-06-09T12:26:11.476032,13.17647740,.00021293,87.9136,7.3955,91.0659,269.0717,0,U,49084,999,23258,.16736222E-3,.78E-6,0
ONEWEB-0296,2021-075L,2026-06-09T12:48:54.632160,13.12441848,.00020792,87.8952,352.1883,95.4036,264.7330,0,U,49085,999,23357,.56392236E-3,.216E-5,0
ONEWEB-0297,2021-075M,2026-06-09T11:43:01.928928,13.12444367,.00019296,87.8937,352.2093,89.7397,270.3952,0,U,49086,999,23417,-.98494205E-3,-.342E-5,0
ONEWEB-0298,2021-075N,2026-06-09T12:32:27.970944,13.17655380,.00019997,87.9135,7.3927,83.9015,276.2345,0,U,49087,999,23261,-.29073525E-2,-.1116E-4,0
ONEWEB-0299,2021-075P,2026-06-09T12:34:42.602016,13.17649318,.00020421,87.9147,7.3718,86.9233,273.2132,0,U,49088,999,23259,.8393417E-4,.45E-6,0
ONEWEB-0300,2021-075Q,2026-06-09T11:32:03.026112,13.12444512,.00019546,87.8951,352.1896,78.3154,281.8193,0,U,49089,999,23419,-.12701023E-2,-.444E-5,0
ONEWEB-0301,2021-075R,2026-06-09T12:58:39.764064,13.12443303,.00017881,87.8947,352.1756,77.8178,282.3150,0,U,49090,999,23356,.33164657E-4,.25E-6,0
ONEWEB-0302,2021-075S,2026-06-09T12:39:09.527040,13.12442683,.00018207,87.8951,352.1901,99.4447,260.6888,0,U,49091,999,23354,.11441795E-2,.424E-5,0
ONEWEB-0304,2021-075T,2026-06-09T11:58:15.125088,13.17649080,.00020047,87.9139,7.3998,88.4886,271.6475,0,U,49092,999,23256,-.1061148E-3,-.28E-6,0
ONEWEB-0305,2021-075U,2026-06-09T11:48:32.078880,13.17648774,.00022419,87.9147,7.3851,88.7137,271.4252,0,U,49093,999,23259,.64910731E-4,.38E-6,0
ONEWEB-0308,2021-075V,2026-06-09T12:29:23.954496,13.12442947,.00017837,87.8949,352.1837,88.6330,271.5003,0,U,49094,999,23355,.13567763E-2,.501E-5,0
